{
    "links": {
        "self": "http://www.neowsapp.com/rest/v1/neo/3712905?api_key=iIulBulltgU6a56xZRHN4H3l9WmuAYTsLGpBGhQ2"
    },
    "id": "3712905",
    "neo_reference_id": "3712905",
    "name": "(2015 EJ)",
    "designation": "2015 EJ",
    "nasa_jpl_url": "http://ssd.jpl.nasa.gov/sbdb.cgi?sstr=3712905",
    "absolute_magnitude_h": 25.4,
    "estimated_diameter": {
        "kilometers": {
            "estimated_diameter_min": 0.022108281,
            "estimated_diameter_max": 0.0494356193
        },
        "meters": {
            "estimated_diameter_min": 22.1082810359,
            "estimated_diameter_max": 49.435619262
        },
        "miles": {
            "estimated_diameter_min": 0.0137374447,
            "estimated_diameter_max": 0.0307178602
        },
        "feet": {
            "estimated_diameter_min": 72.5337327539,
            "estimated_diameter_max": 162.1903570994
        }
    },
    "is_potentially_hazardous_asteroid": false,
    "close_approach_data": [
        {
            "close_approach_date": "2008-12-08",
            "close_approach_date_full": "2008-Dec-08 10:10",
            "epoch_date_close_approach": 1228731000000,
            "relative_velocity": {
                "kilometers_per_second": "4.8456571586",
                "kilometers_per_hour": "17444.3657709531",
                "miles_per_hour": "10839.2504980681"
            },
            "miss_distance": {
                "astronomical": "0.8482744808",
                "lunar": "329.9787730312",
                "kilometers": "126900055.503035896",
                "miles": "78852038.0719955248"
            },
            "orbiting_body": "Juptr"
        },
        {
            "close_approach_date": "2015-03-01",
            "close_approach_date_full": "2015-Mar-01 16:17",
            "epoch_date_close_approach": 1425226620000,
            "relative_velocity": {
                "kilometers_per_second": "12.409419531",
                "kilometers_per_hour": "44673.9103114265",
                "miles_per_hour": "27758.6305487861"
            },
            "miss_distance": {
                "astronomical": "0.0310980072",
                "lunar": "12.0971248008",
                "kilometers": "4652195.638364664",
                "miles": "2890740.3242698032"
            },
            "orbiting_body": "Earth"
        },
        {
            "close_approach_date": "2020-12-04",
            "close_approach_date_full": "2020-Dec-04 09:00",
            "epoch_date_close_approach": 1607072400000,
            "relative_velocity": {
                "kilometers_per_second": "8.4384623996",
                "kilometers_per_hour": "30378.4646384723",
                "miles_per_hour": "18875.9965416108"
            },
            "miss_distance": {
                "astronomical": "1.668415282",
                "lunar": "649.013544698",
                "kilometers": "249591372.46264934",
                "miles": "155088887.281027292"
            },
            "orbiting_body": "Juptr"
        }
    ],
    "orbital_data": {
        "orbit_id": "8",
        "orbit_determination_date": "2017-04-06 08:35:14",
        "first_observation_date": "2015-03-09",
        "last_observation_date": "2015-03-13",
        "data_arc_in_days": 4,
        "observations_used": 29,
        "orbit_uncertainty": "8",
        "minimum_orbit_intersection": ".012065",
        "jupiter_tisserand_invariant": "3.073",
        "epoch_osculation": "2457091.5",
        "eccentricity": ".6503957342804154",
        "semi_major_axis": "2.603245555829817",
        "inclination": "2.17642622953889",
        "ascending_node_longitude": "354.4901026523177",
        "orbital_period": "1534.161678328351",
        "perihelion_distance": ".910105751033655",
        "perihelion_argument": "123.8657901925585",
        "aphelion_distance": "4.296385360625979",
        "perihelion_time": "2457053.261482270783",
        "mean_anomaly": "8.972891564804069",
        "mean_motion": ".2346558417443083",
        "equinox": "J2000",
        "orbit_class": {
            "orbit_class_type": "APO",
            "orbit_class_description": "Near-Earth asteroid orbits which cross the Earth’s orbit similar to that of 1862 Apollo",
            "orbit_class_range": "a (semi-major axis) > 1.0 AU; q (perihelion) < 1.017 AU"
        }
    },
    "is_sentry_object": false
}